start=new Date('2023-04-16T00:00:00.000Z').valueOf();
sats=[{"RA_OF_ASC_NODE":"87.1545","BSTAR":"0.00134590000000","MEAN_MOTION_DDOT":"0.0000000000000","MEAN_MOTION_DOT":"0.00019846","SITE":"AFETR","MEAN_ELEMENT_THEORY":"SGP4","ELEMENT_SET_NO":"999","REF_FRAME":"TEME","PERIAPSIS":"546.033","OBJECT_NAME":"STARLINK-1957","SEMIMAJOR_AXIS":"6925.213","MEAN_ANOMALY":"263.9533","EPOCH":"2023-04-15T08:30:26.445600","GP_ID":"230097538","CLASSIFICATION_TYPE":"U","TIME_SYSTEM":"UTC","OBJECT_TYPE":"PAYLOAD","FILE":"3887974","NORAD_CAT_ID":"47558","DECAY_DATE":null,"RCS_SIZE":"LARGE","CENTER_NAME":"EARTH","LAUNCH_DATE":"2021-02-04","ECCENTRICITY":"0.00015090","PERIOD":"95.589","OBJECT_ID":"2021-009L","ARG_OF_PERICENTER":"96.1628","COUNTRY_CODE":"US","INCLINATION":"53.0528","TLE_LINE1":"1 47558U 21009L   23105.35447275  .00019846  00000-0  13459-2 0  9991","EPHEMERIS_TYPE":"0","APOAPSIS":"548.123","REV_AT_EPOCH":"12126","MEAN_MOTION":"15.06444361","TLE_LINE2":"2 47558  53.0528  87.1545 0001509  96.1628 263.9533 15.06444361121268"},{"COUNTRY_CODE":"US","ARG_OF_PERICENTER":"95.8119","OBJECT_ID":"2021-009M","PERIOD":"95.592","ECCENTRICITY":"0.00017290","LAUNCH_DATE":"2021-02-04","CENTER_NAME":"EARTH","RCS_SIZE":"LARGE","DECAY_DATE":null,"NORAD_CAT_ID":"47559","TLE_LINE2":"2 47559  53.0523  74.6380 0001729  95.8119 264.3067 15.06398337121490","MEAN_MOTION":"15.06398337","REV_AT_EPOCH":"12149","APOAPSIS":"548.416","TLE_LINE1":"1 47559U 21009M   23105.91567195  .00015988  00000-0  10898-2 0  9995","EPHEMERIS_TYPE":"0","INCLINATION":"53.0523","PERIAPSIS":"546.021","REF_FRAME":"TEME","ELEMENT_SET_NO":"999","MEAN_ELEMENT_THEORY":"SGP4","SITE":"AFETR","MEAN_MOTION_DDOT":"0.0000000000000","MEAN_MOTION_DOT":"0.00015988","BSTAR":"0.00108980000000","RA_OF_ASC_NODE":"74.6380","OBJECT_TYPE":"PAYLOAD","FILE":"3888171","TIME_SYSTEM":"UTC","CLASSIFICATION_TYPE":"U","GP_ID":"230130053","EPOCH":"2023-04-15T21:58:34.056480","MEAN_ANOMALY":"264.3067","SEMIMAJOR_AXIS":"6925.354","OBJECT_NAME":"STARLINK-1958"},{"TLE_LINE1":"1 47560U 21009N   23105.64196285  .00006767  00000-0  47277-3 0  9992","APOAPSIS":"549.128","EPHEMERIS_TYPE":"0","INCLINATION":"53.0550","REV_AT_EPOCH":"12145","TLE_LINE2":"2 47560  53.0550  75.8615 0002765  76.0874 284.0422 15.06400101121459","MEAN_MOTION":"15.06400101","RCS_SIZE":"LARGE","ECCENTRICITY":"0.00027650","LAUNCH_DATE":"2021-02-04","CENTER_NAME":"EARTH","DECAY_DATE":null,"NORAD_CAT_ID":"47560","ARG_OF_PERICENTER":"76.0874","OBJECT_ID":"2021-009N","PERIOD":"95.592","COUNTRY_CODE":"US","EPOCH":"2023-04-15T15:24:25.590240","OBJECT_NAME":"STARLINK-1959","SEMIMAJOR_AXIS":"6925.348","MEAN_ANOMALY":"284.0422","FILE":"3888171","OBJECT_TYPE":"PAYLOAD","TIME_SYSTEM":"UTC","CLASSIFICATION_TYPE":"U","GP_ID":"230130300","SITE":"AFETR","MEAN_ELEMENT_THEORY":"SGP4","RA_OF_ASC_NODE":"75.8615","MEAN_MOTION_DDOT":"0.0000000000000","MEAN_MOTION_DOT":"0.00006767","BSTAR":"0.00047277000000","ELEMENT_SET_NO":"999","REF_FRAME":"TEME","PERIAPSIS":"545.298"},{"MEAN_MOTION_DOT":"0.00002779","MEAN_MOTION_DDOT":"0.0000000000000","BSTAR":"0.00020537000000","RA_OF_ASC_NODE":"95.6258","MEAN_ELEMENT_THEORY":"SGP4","SITE":"AFETR","PERIAPSIS":"546.054","ELEMENT_SET_NO":"999","REF_FRAME":"TEME","SEMIMAJOR_AXIS":"6925.334","MEAN_ANOMALY":"284.5217","OBJECT_NAME":"STARLINK-1960","EPOCH":"2023-04-15T16:42:44.797248","CLASSIFICATION_TYPE":"U","GP_ID":"230128553","FILE":"3888171","OBJECT_TYPE":"PAYLOAD","TIME_SYSTEM":"UTC","DECAY_DATE":null,"NORAD_CAT_ID":"47561","LAUNCH_DATE":"2021-02-04","ECCENTRICITY":"0.00016540","CENTER_NAME":"EARTH","RCS_SIZE":"LARGE","COUNTRY_CODE":"US","ARG_OF_PERICENTER":"75.5955","PERIOD":"95.592","OBJECT_ID":"2021-009P","REV_AT_EPOCH":"12118","EPHEMERIS_TYPE":"0","TLE_LINE1":"1 47561U 21009P   23105.69635182  .00002779  00000-0  20537-3 0  9991","APOAPSIS":"548.345","INCLINATION":"53.0533","MEAN_MOTION":"15.06404636","TLE_LINE2":"2 47561  53.0533  95.6258 0001654  75.5955 284.5217 15.06404636121188"},{"CENTER_NAME":"EARTH","LAUNCH_DATE":"2021-02-04","ECCENTRICITY":"0.00012360","RCS_SIZE":"LARGE","DECAY_DATE":null,"NORAD_CAT_ID":"47562","COUNTRY_CODE":"US","ARG_OF_PERICENTER":"74.8773","OBJECT_ID":"2021-009Q","PERIOD":"95.591","REV_AT_EPOCH":"12118","TLE_LINE1":"1 47562U 21009Q   23105.71109277  .00009182  00000-0  63425-3 0  9994","APOAPSIS":"548.029","EPHEMERIS_TYPE":"0","INCLINATION":"53.0528","TLE_LINE2":"2 47562  53.0528  95.5574 0001236  74.8773 285.2353 15.06413368121180","MEAN_MOTION":"15.06413368","MEAN_ELEMENT_THEORY":"SGP4","SITE":"AFETR","MEAN_MOTION_DDOT":"0.0000000000000","MEAN_MOTION_DOT":"0.00009182","BSTAR":"0.00063425000000","RA_OF_ASC_NODE":"95.5574","PERIAPSIS":"546.317","ELEMENT_SET_NO":"999","REF_FRAME":"TEME","EPOCH":"2023-04-15T17:03:58.415328","SEMIMAJOR_AXIS":"6925.308","MEAN_ANOMALY":"285.2353","OBJECT_NAME":"STARLINK-1961","OBJECT_TYPE":"PAYLOAD","FILE":"3888171","TIME_SYSTEM":"UTC","CLASSIFICATION_TYPE":"U","GP_ID":"230129302"},{"MEAN_MOTION":"15.06417173","TLE_LINE2":"2 47563  53.0526  95.7555 0001602 109.7150 250.4012 15.06417173121177","REV_AT_EPOCH":"12117","TLE_LINE1":"1 47563U 21009R   23105.66685903  .00001790  00000-0  13897-3 0  9999","EPHEMERIS_TYPE":"0","APOAPSIS":"548.270","INCLINATION":"53.0526","COUNTRY_CODE":"US","ARG_OF_PERICENTER":"109.7150","OBJECT_ID":"2021-009R","PERIOD":"95.591","NORAD_CAT_ID":"47563","DECAY_DATE":null,"CENTER_NAME":"EARTH","LAUNCH_DATE":"2021-02-04","ECCENTRICITY":"0.00016020","RCS_SIZE":"LARGE","CLASSIFICATION_TYPE":"U","GP_ID":"230129554","OBJECT_TYPE":"PAYLOAD","FILE":"3888171","TIME_SYSTEM":"UTC","MEAN_ANOMALY":"250.4012","SEMIMAJOR_AXIS":"6925.296","OBJECT_NAME":"STARLINK-1962","EPOCH":"2023-04-15T16:00:16.620192","PERIAPSIS":"546.051","REF_FRAME":"TEME","ELEMENT_SET_NO":"999","MEAN_MOTION_DOT":"0.00001790","MEAN_MOTION_DDOT":"0.0000000000000","BSTAR":"0.00013897000000","RA_OF_ASC_NODE":"95.7555","MEAN_ELEMENT_THEORY":"SGP4","SITE":"AFETR"},{"RCS_SIZE":"LARGE","LAUNCH_DATE":"2021-02-04","CENTER_NAME":"EARTH","ECCENTRICITY":"0.00017970","DECAY_DATE":null,"NORAD_CAT_ID":"47564","PERIOD":"95.591","OBJECT_ID":"2021-009S","ARG_OF_PERICENTER":"85.6212","COUNTRY_CODE":"US","INCLINATION":"53.0533","EPHEMERIS_TYPE":"0","TLE_LINE1":"1 47564U 21009S   23105.66778761  .00012027  00000-0  82453-3 0  9994","APOAPSIS":"548.407","REV_AT_EPOCH":"12131","TLE_LINE2":"2 47564  53.0533  85.7511 0001797  85.6212 274.4982 15.06416587121319","MEAN_MOTION":"15.06416587","SITE":"AFETR","MEAN_ELEMENT_THEORY":"SGP4","RA_OF_ASC_NODE":"85.7511","BSTAR":"0.00082453000000","MEAN_MOTION_DOT":"0.00012027","MEAN_MOTION_DDOT":"0.0000000000000","ELEMENT_SET_NO":"999","REF_FRAME":"TEME","PERIAPSIS":"545.918","EPOCH":"2023-04-15T16:01:36.849504","OBJECT_NAME":"STARLINK-1963","MEAN_ANOMALY":"274.4982","SEMIMAJOR_AXIS":"6925.298","TIME_SYSTEM":"UTC","OBJECT_TYPE":"PAYLOAD","FILE":"3888171","GP_ID":"230129801","CLASSIFICATION_TYPE":"U"},{"COUNTRY_CODE":"US","OBJECT_ID":"2021-009T","PERIOD":"95.592","ARG_OF_PERICENTER":"70.1040","DECAY_DATE":null,"NORAD_CAT_ID":"47565","LAUNCH_DATE":"2021-02-04","ECCENTRICITY":"0.00013140","CENTER_NAME":"EARTH","RCS_SIZE":"LARGE","MEAN_MOTION":"15.06407554","TLE_LINE2":"2 47565  53.0529  85.7704 0001314  70.1040 290.0090 15.06407554121310","REV_AT_EPOCH":"12131","INCLINATION":"53.0529","APOAPSIS":"548.100","TLE_LINE1":"1 47565U 21009T   23105.66410124  .00007386  00000-0  51410-3 0  9992","EPHEMERIS_TYPE":"0","PERIAPSIS":"546.280","ELEMENT_SET_NO":"999","REF_FRAME":"TEME","BSTAR":"0.00051410000000","MEAN_MOTION_DDOT":"0.0000000000000","MEAN_MOTION_DOT":"0.00007386","RA_OF_ASC_NODE":"85.7704","MEAN_ELEMENT_THEORY":"SGP4","SITE":"AFETR","GP_ID":"230129053","CLASSIFICATION_TYPE":"U","TIME_SYSTEM":"UTC","FILE":"3888171","OBJECT_TYPE":"PAYLOAD","MEAN_ANOMALY":"290.0090","SEMIMAJOR_AXIS":"6925.325","OBJECT_NAME":"STARLINK-1964","EPOCH":"2023-04-15T15:56:18.347136"},{"MEAN_ELEMENT_THEORY":"SGP4","SITE":"AFETR","BSTAR":"0.00125030000000","MEAN_MOTION_DDOT":"0.0000000000000","MEAN_MOTION_DOT":"0.00018393","RA_OF_ASC_NODE":"74.6025","PERIAPSIS":"545.901","ELEMENT_SET_NO":"999","REF_FRAME":"TEME","EPOCH":"2023-04-15T22:09:11.179584","SEMIMAJOR_AXIS":"6925.333","MEAN_ANOMALY":"270.0912","OBJECT_NAME":"STARLINK-1965","TIME_SYSTEM":"UTC","OBJECT_TYPE":"PAYLOAD","FILE":"3888171","GP_ID":"230128803","CLASSIFICATION_TYPE":"U","LAUNCH_DATE":"2021-02-04","ECCENTRICITY":"0.00018720","CENTER_NAME":"EARTH","RCS_SIZE":"LARGE","DECAY_DATE":null,"NORAD_CAT_ID":"47566","COUNTRY_CODE":"US","OBJECT_ID":"2021-009U","PERIOD":"95.592","ARG_OF_PERICENTER":"90.0291","REV_AT_EPOCH":"12149","INCLINATION":"53.0529","EPHEMERIS_TYPE":"0","TLE_LINE1":"1 47566U 21009U   23105.92304606  .00018393  00000-0  12503-2 0  9998","APOAPSIS":"548.494","TLE_LINE2":"2 47566  53.0529  74.6025 0001872  90.0291 270.0912 15.06405105121492","MEAN_MOTION":"15.06405105"},{"ELEMENT_SET_NO":"999","REF_FRAME":"TEME","PERIAPSIS":"545.638","SITE":"AFETR","MEAN_ELEMENT_THEORY":"SGP4","RA_OF_ASC_NODE":"115.3392","BSTAR":"0.00048013000000","MEAN_MOTION_DOT":"0.00006880","MEAN_MOTION_DDOT":"0.0000000000000","TIME_SYSTEM":"UTC","FILE":"3888171","OBJECT_TYPE":"PAYLOAD","GP_ID":"230130054","CLASSIFICATION_TYPE":"U","EPOCH":"2023-04-15T18:15:37.592064","OBJECT_NAME":"STARLINK-1966","MEAN_ANOMALY":"314.3420","SEMIMAJOR_AXIS":"6925.297","OBJECT_ID":"2021-009V","PERIOD":"95.591","ARG_OF_PERICENTER":"45.7749","COUNTRY_CODE":"US","RCS_SIZE":"LARGE","CENTER_NAME":"EARTH","LAUNCH_DATE":"2021-02-04","ECCENTRICITY":"0.00022000","DECAY_DATE":null,"NORAD_CAT_ID":"47567","TLE_LINE2":"2 47567  53.0496 115.3392 0002200  45.7749 314.3420 15.06416805120907","MEAN_MOTION":"15.06416805","INCLINATION":"53.0496","EPHEMERIS_TYPE":"0","TLE_LINE1":"1 47567U 21009V   23105.76085176  .00006880  00000-0  48013-3 0  9993","APOAPSIS":"548.686","REV_AT_EPOCH":"12090"}];
